PE2_FLT2  (TYVAK-0262)  
1 59104U 24043G   26068.92472008  .00004105  00000+0  36572-3 0  9991
2 59104  97.8241 199.4452 0006851  28.1235 332.0355 14.96566721109803
STARLINK-33904          
1 63887U 25094Z   26068.86779939  .00005810  00000+0  49417-3 0  9993
2 63887  70.0012 233.8528 0003120 268.9324  91.1478 14.98343675 47231
